{"type":"FeatureCollection","features":[{"type":"Feature","properties":{"name":"Landsports","description":"Meets at the Landsports tree next to the basketball court."},"geometry":{"type":"Point","coordinates":[-84.6836,45.4241029]}},{"type":"Feature","properties":{"name":"Star","description":"Previously Northstar, Star is a quieter activity hour"},"geometry":{"type":"Point","coordinates":[-84.6833059,45.42375]}},{"type":"Feature","properties":{"name":"Cards and Games","description":"Play your favorite card and board games. Magic, euchre, table hockey and more!"},"geometry":{"type":"Point","coordinates":[-84.6832557,45.4233539]}},{"type":"Feature","properties":{"name":"Drama","description":"Put on a play, walk in a fashion show, or come up with a new theme song for AGQ."},"geometry":{"type":"Point","coordinates":[-84.6839818,45.4230961]}},{"type":"Feature","properties":{"name":"Swimming","description":"Meet at the buddy board to put your tag up, then enjoy a nice splash in Burt Lake."},"geometry":{"type":"Point","coordinates":[-84.682901,45.4232281]}},{"type":"Feature","properties":{"name":"Sailing","description":"Sign up for sailing lessons and venture accross Burt Lake. Go accross and back to recieve the Admirals Award."},"geometry":{"type":"Point","coordinates":[-84.6825962,45.4225704]}},{"type":"Feature","properties":{"name":"Canoeing","description":"Grab a paddle and get ready to row. Explore the shore of AGQ, listen to music on the water, or have a pirate battle!"},"geometry":{"type":"Point","coordinates":[-84.6824197,45.4224495]}},{"type":"Feature","properties":{"name":"Woodshop","description":"Try cutting out your initial or making something to gift to your parents. Practice cutting, nailing, and painting here!"},"geometry":{"type":"Point","coordinates":[-84.6845735,45.4229874]}},{"type":"Feature","properties":{"name":"Arts and Crafts","description":"Let your creative side loose here at A+C."},"geometry":{"type":"Point","coordinates":[-84.6848668,45.4222647]}},{"type":"Feature","properties":{"name":"Library","description":"Get lost in a book or take a quiet break from the action."},"geometry":{"type":"Point","coordinates":[-84.6848217,45.4221571]}},{"type":"Feature","properties":{"name":"Wall","description":"Your cabin will get the chance to climb the wall. If you make it up, you can cruise down on the zip-line!"},"geometry":{"type":"Point","coordinates":[-84.6836981,45.4216291]}},{"type":"Feature","properties":{"name":"Barn","description":"Sign up for trail rides and learn to ride one of AGQ's sweetest four-legged friends."},"geometry":{"type":"Point","coordinates":[-84.6866437,45.4240615]}},{"type":"Feature","properties":{"name":"Water Skiing","description":"Sign up for water skiing and zip around Burt Lake. Practice getting up on both skiis, or maybe even one!"},"geometry":{"type":"Point","coordinates":[-84.6828969,45.4231346]}},{"type":"Feature","properties":{"name":"Funk","description":"Fun-Understanding-of-Nature-Knowledge is a great way to explore AGQ and learn more about the ecosystem around you!"},"geometry":{"type":"Point","coordinates":[-84.684079,45.4217945]}}]}