{"type":"FeatureCollection","features":[{"type":"Feature","properties":{"name":"Downstairs camp"},"geometry":{"type":"Polygon","coordinates":[[[-84.6824223,45.4223943],[-84.68216,45.422081],[-84.6830863,45.4221682],[-84.6831044,45.4221692],[-84.6831221,45.4221716],[-84.6831464,45.4221771],[-84.6831691,45.4221852],[-84.68319,45.4221955],[-84.6832084,45.4222079],[-84.6838677,45.4221403],[-84.6840834,45.4223533],[-84.6842257,45.4226322],[-84.6840886,45.422865],[-84.684215,45.4232173],[-84.6842313,45.4232627],[-84.68432,45.4234521],[-84.6844409,45.4236325],[-84.684592,45.4238011],[-84.6846997,45.4243051],[-84.684723,45.4248145],[-84.6846721,45.4252351],[-84.6846615,45.4253223],[-84.6843552,45.4257796],[-84.683871,45.4249543],[-84.6836625,45.4245781],[-84.6835069,45.4242972],[-84.6835063,45.4242962],[-84.6834723,45.4242348],[-84.6832434,45.4238216],[-84.6830349,45.4234455],[-84.6830349,45.4234454],[-84.6829415,45.4232769],[-84.6826933,45.4228181],[-84.6825403,45.4225353],[-84.6824223,45.4223943]]]}},{"type":"Feature","properties":{"name":"Upstairs Camp"},"geometry":{"type":"Polygon","coordinates":[[[-84.6894758,45.4248457],[-84.6894665,45.4248444],[-84.689457,45.4248443],[-84.6894477,45.4248454],[-84.6894388,45.4248475],[-84.6894305,45.4248508],[-84.6894231,45.424855],[-84.6894169,45.42486],[-84.689412,45.4248657],[-84.6894155,45.4248719],[-84.6894174,45.4248784],[-84.6894178,45.4248851],[-84.6894165,45.4248917],[-84.6894136,45.424898],[-84.6894092,45.4249039],[-84.6894034,45.4249092],[-84.6893964,45.4249137],[-84.6893884,45.4249173],[-84.6893797,45.4249199],[-84.6893704,45.4249213],[-84.689361,45.4249217],[-84.6893516,45.4249209],[-84.6893425,45.4249189],[-84.6893341,45.4249159],[-84.6893265,45.4249119],[-84.68932,45.4249071],[-84.6893147,45.4249015],[-84.689311,45.4248954],[-84.6893087,45.4248889],[-84.6893081,45.4248823],[-84.6893091,45.4248756],[-84.6893051,45.4248357],[-84.6892917,45.4247969],[-84.6892692,45.4247601],[-84.6892384,45.4247265],[-84.6891999,45.4246971],[-84.689155,45.4246726],[-84.6891049,45.4246537],[-84.6890511,45.424641],[-84.6889949,45.4246348],[-84.6887395,45.424642],[-84.6884856,45.4246209],[-84.6882396,45.4245722],[-84.6881338,45.4245454],[-84.6880359,45.4245065],[-84.6879489,45.4244564],[-84.6878751,45.4243966],[-84.6878168,45.424329],[-84.6877756,45.4242553],[-84.6877528,45.4241778],[-84.6877489,45.4240987],[-84.6877641,45.4240203],[-84.6875836,45.4239476],[-84.6873895,45.4238953],[-84.6871863,45.4238646],[-84.6869787,45.4238562],[-84.6868085,45.4242092],[-84.6865548,45.4241893],[-84.6865032,45.4239672],[-84.6864806,45.4238699],[-84.6863676,45.4237974],[-84.6862692,45.4237149],[-84.6860167,45.4236411],[-84.686002,45.4236396],[-84.6859872,45.4236398],[-84.6859727,45.4236417],[-84.6859588,45.4236453],[-84.6859459,45.4236504],[-84.6859343,45.4236569],[-84.6859245,45.4236647],[-84.6859166,45.4236735],[-84.6859083,45.4236774],[-84.6858993,45.4236803],[-84.6858897,45.4236821],[-84.6858798,45.4236827],[-84.6858699,45.4236822],[-84.6858602,45.4236805],[-84.6858511,45.4236778],[-84.6858427,45.423674],[-84.6858354,45.4236693],[-84.6858293,45.4236637],[-84.6858245,45.4236576],[-84.6858213,45.423651],[-84.6858197,45.4236441],[-84.6855765,45.423587],[-84.6855734,45.4235804],[-84.6855689,45.4235744],[-84.6855628,45.4235689],[-84.6855556,45.4235643],[-84.6855473,45.4235606],[-84.6855383,45.423558],[-84.6855287,45.4235565],[-84.685519,45.4235562],[-84.6855093,45.4235571],[-84.6854999,45.4235591],[-84.6854912,45.4235622],[-84.6854834,45.4235664],[-84.6854767,45.4235714],[-84.6854714,45.4235772],[-84.6854706,45.4235839],[-84.6854683,45.4235905],[-84.6854644,45.4235967],[-84.6854592,45.4236024],[-84.6854527,45.4236074],[-84.6854451,45.4236116],[-84.6854366,45.4236149],[-84.6854275,45.4236171],[-84.685418,45.4236182],[-84.6854084,45.4236183],[-84.6853989,45.4236172],[-84.6853898,45.423615],[-84.6853813,45.4236118],[-84.6853678,45.4235839],[-84.6853484,45.4235578],[-84.6853236,45.4235341],[-84.685317,45.4235217],[-84.6853077,45.4235102],[-84.685296,45.4234998],[-84.6852821,45.4234909],[-84.6852664,45.4234836],[-84.6852492,45.4234782],[-84.6852311,45.4234747],[-84.6852124,45.4234732],[-84.6852167,45.4234666],[-84.6852193,45.4234595],[-84.6852202,45.4234522],[-84.6852194,45.423445],[-84.6852168,45.4234379],[-84.6852127,45.4234312],[-84.6852069,45.4234252],[-84.6851998,45.4234198],[-84.6851916,45.4234154],[-84.6851824,45.4234121],[-84.6851725,45.4234099],[-84.6851623,45.4234088],[-84.6851519,45.423409],[-84.6851202,45.4234175],[-84.685087,45.4234226],[-84.6850532,45.4234243],[-84.6850193,45.4234225],[-84.6849862,45.4234172],[-84.6849743,45.4234072],[-84.6849602,45.4233988],[-84.6849444,45.4233922],[-84.6849272,45.4233874],[-84.6849092,45.4233847],[-84.6848908,45.4233842],[-84.6848724,45.4233857],[-84.6848547,45.4233894],[-84.6848381,45.423395],[-84.6848126,45.4234016],[-84.6847858,45.4234053],[-84.6847586,45.4234058],[-84.6847316,45.4234033],[-84.6847055,45.4233978],[-84.684681,45.4233894],[-84.6846588,45.4233784],[-84.6846393,45.4233649],[-84.6846232,45.4233495],[-84.6846108,45.4233324],[-84.684215,45.4232173],[-84.6842142,45.423217],[-84.6840886,45.422865],[-84.6842257,45.4226322],[-84.6840834,45.4223533],[-84.6838677,45.4221403],[-84.6838677,45.4221402],[-84.6838873,45.422065],[-84.6838986,45.4220214],[-84.6838986,45.4220212],[-84.6839033,45.4219961],[-84.6839033,45.421996],[-84.6839164,45.4218902],[-84.6839164,45.4218901],[-84.6839182,45.4217703],[-84.6841304,45.4216481],[-84.6841496,45.4213572],[-84.6844796,45.4214972],[-84.6845859,45.4214298],[-84.6848283,45.4212762],[-84.6849689,45.421186],[-84.6849707,45.4211848],[-84.6849708,45.4211847],[-84.6850088,45.4211641],[-84.6850089,45.4211641],[-84.6850509,45.4211477],[-84.6850509,45.4211477],[-84.6851131,45.421133],[-84.6851133,45.421133],[-84.6851568,45.4211284],[-84.6851996,45.4211134],[-84.6853087,45.4210753],[-84.6853556,45.4210661],[-84.6853557,45.4210661],[-84.6853835,45.4210653],[-84.6854111,45.4210678],[-84.6854111,45.4210679],[-84.6854294,45.4210715],[-84.6854296,45.4210715],[-84.6854477,45.4210768],[-84.6854478,45.4210768],[-84.6854651,45.4210836],[-84.6854651,45.4210837],[-84.6854811,45.4210919],[-84.6854811,45.421092],[-84.6855185,45.4211243],[-84.6855934,45.4212286],[-84.6856354,45.4212871],[-84.6858885,45.421599],[-84.6859533,45.4216309],[-84.6860246,45.4216548],[-84.6861005,45.4216701],[-84.686179,45.4216765],[-84.6862579,45.4216737],[-84.686335,45.4216618],[-84.6864084,45.4216411],[-84.6864759,45.4216123],[-84.6865358,45.421576],[-84.6865864,45.4215333],[-84.6868147,45.4215754],[-84.6870901,45.4216262],[-84.6870709,45.421687],[-84.687037,45.4217446],[-84.6869895,45.4217971],[-84.6869298,45.4218431],[-84.6868598,45.4218811],[-84.6876163,45.4225437],[-84.6875989,45.4225456],[-84.6875822,45.4225494],[-84.6875666,45.4225551],[-84.6875525,45.4225625],[-84.6875403,45.4225714],[-84.6875303,45.4225816],[-84.6875228,45.4225928],[-84.6875179,45.4226047],[-84.6875159,45.4226169],[-84.6875167,45.4226293],[-84.6875203,45.4226414],[-84.6875267,45.4226529],[-84.6875356,45.4226636],[-84.6875469,45.4226731],[-84.6881545,45.4228654],[-84.6887903,45.4230053],[-84.6894453,45.4230907],[-84.6896174,45.4231916],[-84.6898112,45.4232706],[-84.6900211,45.4233256],[-84.6902411,45.4233549],[-84.6903459,45.4233562],[-84.6905305,45.4233563],[-84.6904905,45.4257897],[-84.6897579,45.425479],[-84.6896916,45.4253523],[-84.6895987,45.4252342],[-84.6894812,45.4251275],[-84.6895104,45.4250992],[-84.6895329,45.4250681],[-84.6895483,45.4250349],[-84.6895561,45.4250005],[-84.6895561,45.4249655],[-84.6895484,45.424931],[-84.6895331,45.4248978],[-84.6895107,45.4248667],[-84.689506,45.4248609],[-84.6895,45.4248558],[-84.6894928,45.4248514],[-84.6894847,45.424848],[-84.6894758,45.4248457]]]}},{"type":"Feature","properties":{"name":"Waterfront"},"geometry":{"type":"Polygon","coordinates":[[[-84.6801607,45.4196926],[-84.6803372,45.4200526],[-84.680569,45.4203546],[-84.6821594,45.4220803],[-84.68216,45.422081],[-84.6824223,45.4223943],[-84.6825403,45.4225353],[-84.6826933,45.4228181],[-84.6830349,45.4234454],[-84.6830349,45.4234455],[-84.6832434,45.4238216],[-84.6834723,45.4242348],[-84.6835063,45.4242962],[-84.6835069,45.4242972],[-84.6836625,45.4245781],[-84.683871,45.4249543],[-84.6843552,45.4257796],[-84.6838289,45.4253935],[-84.6835478,45.4249325],[-84.6827919,45.4237304],[-84.681728,45.4221837],[-84.679405,45.4196839],[-84.6801607,45.4196926]]]}},{"type":"Feature","properties":{"name":"Wetland Forest"},"geometry":{"type":"Polygon","coordinates":[[[-84.6827003,45.4224255],[-84.6826434,45.4224194],[-84.6825882,45.4224078],[-84.6825357,45.4223912],[-84.6824869,45.4223697],[-84.6824427,45.4223437],[-84.6824039,45.4223138],[-84.6823711,45.4222805],[-84.68216,45.422081],[-84.6821594,45.4220803],[-84.680569,45.4203546],[-84.6803372,45.4200526],[-84.6801607,45.4196926],[-84.6830786,45.419726],[-84.6845822,45.4197412],[-84.6844854,45.4200188],[-84.6844853,45.4200189],[-84.6844402,45.4201332],[-84.6843922,45.420247],[-84.6842426,45.4205618],[-84.6841676,45.4207024],[-84.6841569,45.4207218],[-84.6841545,45.4209271],[-84.6841503,45.421291],[-84.6841502,45.4213017],[-84.6841496,45.4213572],[-84.6841471,45.4215689],[-84.6841304,45.4216481],[-84.6839182,45.4217703],[-84.683919,45.4218302],[-84.6839164,45.4218901],[-84.6839164,45.4218902],[-84.6839112,45.4219432],[-84.6839033,45.421996],[-84.6839033,45.4219961],[-84.6838986,45.4220212],[-84.6838986,45.4220214],[-84.6838873,45.422065],[-84.6838677,45.4221402],[-84.6838677,45.4221403],[-84.6838424,45.4222111],[-84.6837901,45.4223104],[-84.683745,45.4224115],[-84.6837074,45.422514],[-84.6836773,45.4226178],[-84.6836547,45.4227225],[-84.6836398,45.4228279],[-84.6835463,45.4228147],[-84.6834553,45.4227947],[-84.6833677,45.4227682],[-84.6832845,45.4227354],[-84.6832066,45.4226967],[-84.6831348,45.4226526],[-84.6830698,45.4226034],[-84.6830125,45.4225498],[-84.6829633,45.4224923],[-84.6829185,45.422467],[-84.6828683,45.4224473],[-84.6828143,45.4224336],[-84.6827578,45.4224262],[-84.6827003,45.4224255]]]}},{"type":"Feature","properties":{"name":"Aspen Maple Forest"},"geometry":{"type":"Polygon","coordinates":[[[-84.6855185,45.4211243],[-84.6855142,45.4211182],[-84.6854991,45.4211042],[-84.6854811,45.421092],[-84.6854811,45.4210919],[-84.6854651,45.4210837],[-84.6854651,45.4210836],[-84.6854478,45.4210768],[-84.6854477,45.4210768],[-84.6854296,45.4210715],[-84.6854294,45.4210715],[-84.6854111,45.4210679],[-84.6854111,45.4210678],[-84.6853835,45.4210653],[-84.6853557,45.4210661],[-84.6853556,45.4210661],[-84.6853316,45.4210694],[-84.6853087,45.4210753],[-84.6851996,45.4211134],[-84.6851568,45.4211284],[-84.6851133,45.421133],[-84.6851131,45.421133],[-84.6850509,45.4211477],[-84.6850509,45.4211477],[-84.6850089,45.4211641],[-84.6850088,45.4211641],[-84.6849708,45.4211847],[-84.6849707,45.4211848],[-84.6849689,45.421186],[-84.6848283,45.4212762],[-84.6845859,45.4214298],[-84.6844796,45.4214972],[-84.6841496,45.4213572],[-84.6841502,45.4213017],[-84.6841503,45.421291],[-84.6841676,45.4207024],[-84.6842426,45.4205618],[-84.6843922,45.420247],[-84.6845822,45.4197412],[-84.6847698,45.4188957],[-84.6853543,45.4188888],[-84.6883446,45.4189588],[-84.6899135,45.419915],[-84.6882749,45.4207948],[-84.6868147,45.4215754],[-84.6865864,45.4215333],[-84.6865358,45.421576],[-84.6864759,45.4216123],[-84.6864084,45.4216411],[-84.686335,45.4216618],[-84.6862579,45.4216737],[-84.686179,45.4216765],[-84.6861005,45.4216701],[-84.6860246,45.4216548],[-84.6859533,45.4216309],[-84.6858885,45.421599],[-84.6856354,45.4212871],[-84.6855934,45.4212286],[-84.6855185,45.4211243]]]}},{"type":"Feature","properties":{"name":"Hemlock Pine Forest"},"geometry":{"type":"Polygon","coordinates":[[[-84.6868147,45.4215754],[-84.6882749,45.4207948],[-84.6899135,45.419915],[-84.6905804,45.4203215],[-84.6905305,45.4233563],[-84.6903459,45.4233562],[-84.6902411,45.4233549],[-84.6900211,45.4233256],[-84.6898112,45.4232706],[-84.6896174,45.4231916],[-84.6894453,45.4230907],[-84.6887903,45.4230053],[-84.6881545,45.4228654],[-84.6875469,45.4226731],[-84.6875356,45.4226636],[-84.6875267,45.4226529],[-84.6875203,45.4226414],[-84.6875167,45.4226293],[-84.6875159,45.4226169],[-84.6875179,45.4226047],[-84.6875228,45.4225928],[-84.6875303,45.4225816],[-84.6875403,45.4225714],[-84.6875525,45.4225625],[-84.6875666,45.4225551],[-84.6875822,45.4225494],[-84.6875989,45.4225456],[-84.6876163,45.4225437],[-84.6868598,45.4218811],[-84.6869298,45.4218431],[-84.6869895,45.4217971],[-84.687037,45.4217446],[-84.6870709,45.421687],[-84.6870901,45.4216262],[-84.6868147,45.4215754]]]}},{"type":"Feature","properties":{"name":"Mixed Hardwood Forest"},"geometry":{"type":"Polygon","coordinates":[[[-84.6846615,45.4253223],[-84.684723,45.4248145],[-84.6846997,45.4243051],[-84.684592,45.4238011],[-84.6844409,45.4236325],[-84.68432,45.4234521],[-84.6842313,45.4232627],[-84.684215,45.4232173],[-84.6846108,45.4233324],[-84.6846232,45.4233495],[-84.6846393,45.4233649],[-84.6846588,45.4233784],[-84.684681,45.4233894],[-84.6847055,45.4233978],[-84.6847316,45.4234033],[-84.6847586,45.4234058],[-84.6847858,45.4234053],[-84.6848126,45.4234016],[-84.6848381,45.423395],[-84.6848547,45.4233894],[-84.6848724,45.4233857],[-84.6848908,45.4233842],[-84.6849092,45.4233847],[-84.6849272,45.4233874],[-84.6849444,45.4233922],[-84.6849602,45.4233988],[-84.6849743,45.4234072],[-84.6849862,45.4234172],[-84.6850193,45.4234225],[-84.6850532,45.4234243],[-84.685087,45.4234226],[-84.6851202,45.4234175],[-84.6851519,45.423409],[-84.6851623,45.4234088],[-84.6851725,45.4234099],[-84.6851824,45.4234121],[-84.6851916,45.4234154],[-84.6851998,45.4234198],[-84.6852069,45.4234252],[-84.6852127,45.4234312],[-84.6852168,45.4234379],[-84.6852194,45.423445],[-84.6852202,45.4234522],[-84.6852193,45.4234595],[-84.6852167,45.4234666],[-84.6852124,45.4234732],[-84.6852311,45.4234747],[-84.6852492,45.4234782],[-84.6852664,45.4234836],[-84.6852821,45.4234909],[-84.685296,45.4234998],[-84.6853077,45.4235102],[-84.685317,45.4235217],[-84.6853236,45.4235341],[-84.6853484,45.4235578],[-84.6853678,45.4235839],[-84.6853813,45.4236118],[-84.6853898,45.423615],[-84.6853989,45.4236172],[-84.6854084,45.4236183],[-84.685418,45.4236182],[-84.6854275,45.4236171],[-84.6854366,45.4236149],[-84.6854451,45.4236116],[-84.6854527,45.4236074],[-84.6854592,45.4236024],[-84.6854644,45.4235967],[-84.6854683,45.4235905],[-84.6854706,45.4235839],[-84.6854714,45.4235772],[-84.6854767,45.4235714],[-84.6854834,45.4235664],[-84.6854912,45.4235622],[-84.6854999,45.4235591],[-84.6855093,45.4235571],[-84.685519,45.4235562],[-84.6855287,45.4235565],[-84.6855383,45.423558],[-84.6855473,45.4235606],[-84.6855556,45.4235643],[-84.6855628,45.4235689],[-84.6855689,45.4235744],[-84.6855734,45.4235804],[-84.6855765,45.423587],[-84.6858197,45.4236441],[-84.6858213,45.423651],[-84.6858245,45.4236576],[-84.6858293,45.4236637],[-84.6858354,45.4236693],[-84.6858427,45.423674],[-84.6858511,45.4236778],[-84.6858602,45.4236805],[-84.6858699,45.4236822],[-84.6858798,45.4236827],[-84.6858897,45.4236821],[-84.6858993,45.4236803],[-84.6859083,45.4236774],[-84.6859166,45.4236735],[-84.6859245,45.4236647],[-84.6859343,45.4236569],[-84.6859459,45.4236504],[-84.6859588,45.4236453],[-84.6859727,45.4236417],[-84.6859872,45.4236398],[-84.686002,45.4236396],[-84.6860167,45.4236411],[-84.6862692,45.4237149],[-84.6863676,45.4237974],[-84.6864806,45.4238699],[-84.6865032,45.4239672],[-84.6865548,45.4241893],[-84.6868085,45.4242092],[-84.6869787,45.4238562],[-84.6871863,45.4238646],[-84.6873895,45.4238953],[-84.6875836,45.4239476],[-84.6877641,45.4240203],[-84.6877489,45.4240987],[-84.6877528,45.4241778],[-84.6877756,45.4242553],[-84.6878168,45.424329],[-84.6878751,45.4243966],[-84.6879489,45.4244564],[-84.6880359,45.4245065],[-84.6881338,45.4245454],[-84.6882396,45.4245722],[-84.6884856,45.4246209],[-84.6887395,45.424642],[-84.6889949,45.4246348],[-84.6890511,45.424641],[-84.6891049,45.4246537],[-84.689155,45.4246726],[-84.6891999,45.4246971],[-84.6892384,45.4247265],[-84.6892692,45.4247601],[-84.6892917,45.4247969],[-84.6893051,45.4248357],[-84.6893091,45.4248756],[-84.6893081,45.4248823],[-84.6893087,45.4248889],[-84.689311,45.4248954],[-84.6893147,45.4249015],[-84.68932,45.4249071],[-84.6893265,45.4249119],[-84.6893341,45.4249159],[-84.6893425,45.4249189],[-84.6893516,45.4249209],[-84.689361,45.4249217],[-84.6893704,45.4249213],[-84.6893797,45.4249199],[-84.6893884,45.4249173],[-84.6893964,45.4249137],[-84.6894034,45.4249092],[-84.6894092,45.4249039],[-84.6894136,45.424898],[-84.6894165,45.4248917],[-84.6894178,45.4248851],[-84.6894174,45.4248784],[-84.6894155,45.4248719],[-84.689412,45.4248657],[-84.6894169,45.42486],[-84.6894231,45.424855],[-84.6894305,45.4248508],[-84.6894388,45.4248475],[-84.6894477,45.4248454],[-84.689457,45.4248443],[-84.6894665,45.4248444],[-84.6894758,45.4248457],[-84.6894847,45.424848],[-84.6894928,45.4248514],[-84.6895,45.4248558],[-84.689506,45.4248609],[-84.6895107,45.4248667],[-84.6895331,45.4248978],[-84.6895484,45.424931],[-84.6895561,45.4249655],[-84.6895561,45.4250005],[-84.6895483,45.4250349],[-84.6895329,45.4250681],[-84.6895104,45.4250992],[-84.6894812,45.4251275],[-84.6895987,45.4252342],[-84.6896916,45.4253523],[-84.6897579,45.425479],[-84.6904905,45.4257897],[-84.6904854,45.4261023],[-84.6873576,45.4260339],[-84.6873659,45.4256979],[-84.6843552,45.4257796],[-84.6846615,45.4253223]]]}}]}