{"type":"FeatureCollection","features":[{"type":"Feature","properties":{"name":"The Lodge","year":2021,"description":"Administrative building at the center of AGQ."},"geometry":{"type":"Polygon","coordinates":[[[-84.683506,45.4237984],[-84.6834571,45.4238084],[-84.6834511,45.4237938],[-84.6833591,45.4238125],[-84.6833549,45.4238025],[-84.6833153,45.4238106],[-84.6832722,45.4237056],[-84.6832916,45.4237016],[-84.6832684,45.4236452],[-84.6833334,45.423632],[-84.6833241,45.4236092],[-84.6833795,45.4235979],[-84.6833838,45.4236084],[-84.6834287,45.4235992],[-84.6834538,45.4236604],[-84.6834394,45.4236633],[-84.6834482,45.4236848],[-84.6834702,45.4236803],[-84.683506,45.4237984]]]}},{"type":"Feature","properties":{"name":"Kitchen","year":2021,"description":"Kitchen and Dishroom"},"geometry":{"type":"Polygon","coordinates":[[[-84.6832925,45.4235359],[-84.6832748,45.4234921],[-84.6835186,45.4234474],[-84.6835389,45.4235023],[-84.6834294,45.4235224],[-84.6834254,45.4235115],[-84.6832925,45.4235359]]]}},{"type":"Feature","properties":{"name":"Dining Hall","description":"Lake-side and Rowe-sdi make up the two halves to the dining hall, connected on either end by the nook (south west) and the kitchen (north east)"},"geometry":{"type":"Polygon","coordinates":[[[-84.6835389,45.4235023],[-84.6835186,45.4234474],[-84.6832748,45.4234921],[-84.6832601,45.4234519],[-84.6832478,45.4234543],[-84.6831651,45.4232384],[-84.6835427,45.4231758],[-84.6835898,45.4233275],[-84.6836141,45.423329],[-84.6836168,45.4233819],[-84.6835974,45.423387],[-84.6835969,45.4233973],[-84.6836164,45.4234006],[-84.6836345,45.4234736],[-84.6835469,45.4234916],[-84.6835389,45.4235023]]]}},{"type":"Feature","properties":{"name":"Rowe Hall","year":2017,"description":"Rowe Hall is a meeting place for activity hours, evening activities like the talent show and much more!"},"geometry":{"type":"Polygon","coordinates":[[[-84.6838767,45.4231575],[-84.6837689,45.4228674],[-84.6839943,45.4228259],[-84.6840993,45.4231081],[-84.6838767,45.4231575]]]}},{"type":"Feature","properties":{"name":"The Biggie","year":2017,"description":"The Biggie, not to be confused with The Mini, is the health center on camp. Come here for a headache, cuts and scrapes, or anything else that may be bothering you."},"geometry":{"type":"Polygon","coordinates":[[[-84.6842563,45.4235044],[-84.6843053,45.4236279],[-84.6841819,45.4236522],[-84.6841329,45.4235287],[-84.6842563,45.4235044]]]}},{"type":"Feature","properties":{"name":"Cabin 13","year":2019},"geometry":{"type":"Polygon","coordinates":[[[-84.6844945,45.4243048],[-84.6844284,45.4243224],[-84.6843889,45.4242491],[-84.684455,45.4242314],[-84.6844945,45.4243048]]]}},{"type":"Feature","properties":{"name":"Cabin 12","year":2019},"geometry":{"type":"Polygon","coordinates":[[[-84.684373,45.4243418],[-84.6843069,45.4243594],[-84.6842674,45.4242861],[-84.6843335,45.4242684],[-84.684373,45.4243418]]]}},{"type":"Feature","properties":{"name":"Cabin 11","year":2019},"geometry":{"type":"Polygon","coordinates":[[[-84.684234,45.424373],[-84.6841679,45.4243907],[-84.6841284,45.4243174],[-84.6841945,45.4242997],[-84.684234,45.424373]]]}},{"type":"Feature","properties":{"name":"Cabin 10","year":2019},"geometry":{"type":"Polygon","coordinates":[[[-84.6841107,45.4244035],[-84.6840446,45.4244212],[-84.6840051,45.4243479],[-84.6840712,45.4243302],[-84.6841107,45.4244035]]]}},{"type":"Feature","properties":{"name":"Cabin 9","year":2019},"geometry":{"type":"Polygon","coordinates":[[[-84.6839751,45.424446],[-84.683909,45.4244637],[-84.6838695,45.4243903],[-84.6839356,45.4243727],[-84.6839751,45.424446]]]}},{"type":"Feature","properties":{"name":"Cabin 3 and 4","year":2019,"description":"One of two combined cabins"},"geometry":{"type":"Polygon","coordinates":[[[-84.6841211,45.4249862],[-84.6841128,45.4249713],[-84.6840707,45.4249793],[-84.6840479,45.4249228],[-84.6841491,45.4248924],[-84.6842087,45.4250212],[-84.6841005,45.42505],[-84.6840784,45.4249961],[-84.6840974,45.4249917],[-84.6841211,45.4249862]]]}},{"type":"Feature","properties":{"name":"Cabin 1 and 2","year":2019,"description":"One of two combined cabins."},"geometry":{"type":"Polygon","coordinates":[[[-84.6841898,45.4251473],[-84.6841815,45.4251324],[-84.6841394,45.4251404],[-84.6841166,45.4250839],[-84.6842178,45.4250535],[-84.6842774,45.4251823],[-84.6841692,45.425211],[-84.6841471,45.4251572],[-84.6841661,45.4251528],[-84.6841898,45.4251473]]]}},{"type":"Feature","properties":{"name":"Cabin 5","year":2019},"geometry":{"type":"Polygon","coordinates":[[[-84.6841037,45.4248071],[-84.6841283,45.4248537],[-84.6840238,45.424881],[-84.6839992,45.4248343],[-84.6841037,45.4248071]]]}},{"type":"Feature","properties":{"name":"Cabin 9","year":2019},"geometry":{"type":"Polygon","coordinates":[[[-84.6839751,45.424446],[-84.683909,45.4244637],[-84.6838695,45.4243903],[-84.6839356,45.4243727],[-84.6839751,45.424446]]]}},{"type":"Feature","properties":{"name":"Cabin 6","year":2019},"geometry":{"type":"Polygon","coordinates":[[[-84.6840606,45.4247098],[-84.6840852,45.4247565],[-84.6839808,45.4247838],[-84.6839562,45.4247371],[-84.6840606,45.4247098]]]}},{"type":"Feature","properties":{"name":"Cabin 7","year":2019},"geometry":{"type":"Polygon","coordinates":[[[-84.6839949,45.4246005],[-84.6840195,45.4246471],[-84.6839151,45.4246744],[-84.6838905,45.4246278],[-84.6839949,45.4246005]]]}},{"type":"Feature","properties":{"name":"Cabin 8","year":2019},"geometry":{"type":"Polygon","coordinates":[[[-84.6839441,45.4245064],[-84.6839687,45.4245531],[-84.6838643,45.4245804],[-84.6838397,45.4245337],[-84.6839441,45.4245064]]]}},{"type":"Feature","properties":{"name":"GC","description":"Although on the Northside of camp, GC often switches between Northside, Southside, and gender neutral lodging."},"geometry":{"type":"Polygon","coordinates":[[[-84.6845083,45.4237712],[-84.6845275,45.4238238],[-84.6844324,45.423841],[-84.6844132,45.4237884],[-84.6845083,45.4237712]]]}},{"type":"Feature","properties":{"name":"YC","description":"Often for the oldest southside cabin, YC or Yellow Cabin is the only non-gree cabin on camp."},"geometry":{"type":"Polygon","coordinates":[[[-84.6839033,45.4219961],[-84.683977,45.4220121],[-84.6839482,45.4220782],[-84.6838745,45.4220622],[-84.6839033,45.4219961]]]}},{"type":"Feature","properties":{"name":"14","description":"Youngest Southside cabin"},"geometry":{"type":"Polygon","coordinates":[[[-84.6832899,45.4225841],[-84.6833407,45.4226249],[-84.6832669,45.4226705],[-84.683216,45.4226297],[-84.6832899,45.4225841]]]}},{"type":"Feature","properties":{"name":"15","description":"Youngest Southside cabin"},"geometry":{"type":"Polygon","coordinates":[[[-84.683213,45.4225171],[-84.6832586,45.4225608],[-84.6831794,45.4226017],[-84.6831338,45.422558],[-84.683213,45.4225171]]]}},{"type":"Feature","properties":{"name":"16","description":"Youngest Southside cabin"},"geometry":{"type":"Polygon","coordinates":[[[-84.6830872,45.4224297],[-84.6831461,45.4224648],[-84.6830826,45.4225175],[-84.6830237,45.4224824],[-84.6830872,45.4224297]]]}},{"type":"Feature","properties":{"name":"17","description":"Youngest Southside cabin"},"geometry":{"type":"Polygon","coordinates":[[[-84.6829581,45.422355],[-84.6830222,45.4223852],[-84.6829676,45.4224427],[-84.6829035,45.4224125],[-84.6829581,45.422355]]]}},{"type":"Feature","properties":{"name":"18","description":"Youngest Southside cabin"},"geometry":{"type":"Polygon","coordinates":[[[-84.6828401,45.4223075],[-84.6829071,45.4223345],[-84.6828583,45.4223945],[-84.6827914,45.4223676],[-84.6828401,45.4223075]]]}},{"type":"Feature","properties":{"name":"19","description":"Youngest Southside cabin"},"geometry":{"type":"Polygon","coordinates":[[[-84.682645,45.422295],[-84.6827219,45.4222991],[-84.6827145,45.4223681],[-84.6826376,45.4223639],[-84.682645,45.422295]]]}},{"type":"Feature","properties":{"name":"20","description":"Youngest Southside cabin"},"geometry":{"type":"Polygon","coordinates":[[[-84.6825096,45.4222737],[-84.6825863,45.4222793],[-84.6825762,45.4223481],[-84.6824995,45.4223425],[-84.6825096,45.4222737]]]}},{"type":"Feature","properties":{"name":"Southside Bathhouse","year":2013,"description":"Central bathhouse for southside. Toilets, urinals, and indoor and outdoor showers."},"geometry":{"type":"Polygon","coordinates":[[[-84.6830979,45.422338],[-84.6830116,45.4223017],[-84.6831221,45.4221716],[-84.6832084,45.4222079],[-84.6830979,45.422338]]]}},{"type":"Feature","properties":{"name":"Northside Bathhouse","year":2019,"description":"Central bathouse for Northside. Toilets, indoor and outdoor showers."},"geometry":{"type":"Polygon","coordinates":[[[-84.684275,45.4245405],[-84.6843999,45.4245059],[-84.6844897,45.4246666],[-84.6843648,45.4247012],[-84.684275,45.4245405]]]}},{"type":"Feature","properties":{"name":"Old Infirmary","description":"A relic of past camp. Back when campers had to travel up the hill for their health needs."},"geometry":{"type":"Polygon","coordinates":[[[-84.6851221,45.4229858],[-84.6851308,45.4230423],[-84.6849471,45.4230564],[-84.6849384,45.4229999],[-84.6851221,45.4229858]]]}},{"type":"Feature","properties":{"name":"Funk House","year":2021,"description":"Meeting place for FUNK. Here you can learn about the ecology around Camp AGQ."},"geometry":{"type":"Polygon","coordinates":[[[-84.6840993,45.4217706],[-84.6840862,45.4218128],[-84.6840329,45.4218046],[-84.684046,45.4217624],[-84.6840993,45.4217706]]]}},{"type":"Feature","properties":{"name":"Woodshop","description":"Learn how to saw wood and build projects."},"geometry":{"type":"Polygon","coordinates":[[[-84.6846353,45.4230019],[-84.6845497,45.4230425],[-84.6844705,45.4229595],[-84.6845562,45.422919],[-84.6846353,45.4230019]]]}},{"type":"Feature","properties":{"name":"Archery Shed","description":"Meet here for Archery and learn to shoot a bow and arrow."},"geometry":{"type":"Polygon","coordinates":[[[-84.6859124,45.4221806],[-84.685902,45.4222142],[-84.6857518,45.422182],[-84.6857605,45.4221487],[-84.6858301,45.4221633],[-84.6859124,45.4221806]]]}},{"type":"Feature","properties":{"name":"Riflery Range","description":"NO LONGER OPERATING. Riflery was once an activity hour where campers could learn to shoot BB guns."},"geometry":{"type":"Polygon","coordinates":[[[-84.6860126,45.4226176],[-84.6860061,45.4226587],[-84.6858458,45.4226461],[-84.6858523,45.422605],[-84.6860126,45.4226176]]]}},{"type":"Feature","properties":{"name":"Barn","year":2021,"description":"The AGQ barn houses our sweetest 4-legged friends on camp."},"geometry":{"type":"Polygon","coordinates":[[[-84.6867375,45.4240704],[-84.6867529,45.4241749],[-84.6865548,45.4241893],[-84.6865393,45.4240829],[-84.6865788,45.42408],[-84.6865606,45.4239559],[-84.6866832,45.423947],[-84.6867019,45.4240744],[-84.6867375,45.4240704]]]}},{"type":"Feature","properties":{"name":"Boat Shed","description":"Storage"},"geometry":{"type":"Polygon","coordinates":[[[-84.6854957,45.4213666],[-84.6853788,45.421414],[-84.6852798,45.4212929],[-84.685394,45.4212465],[-84.6854957,45.4213666]]]}},{"type":"Feature","properties":{"name":"Maintenance","description":"Holds tools and supplies uesd to fix up camp and keep it safe."},"geometry":{"type":"Polygon","coordinates":[[[-84.6856036,45.4212589],[-84.6855132,45.4212969],[-84.6854507,45.4212232],[-84.6855424,45.4211847],[-84.6855586,45.4212038],[-84.6856036,45.4212589]]]}},{"type":"Feature","properties":{"name":"Climbing Wall","description":"Cllimb both faces of the AGQ wall and zip-line down."},"geometry":{"type":"Polygon","coordinates":[[[-84.6837092,45.4216076],[-84.6837057,45.421653],[-84.6836582,45.421631],[-84.6837092,45.4216076]]]}},{"type":"Feature","properties":{"name":"Library and Arts and Crafts","description":"Sharing a porch, come here for a relaxing hour reading or crafting."},"geometry":{"type":"Polygon","coordinates":[[[-84.6849242,45.4222273],[-84.6849304,45.4222313],[-84.6849681,45.422307],[-84.6848382,45.422339],[-84.6847373,45.4221475],[-84.6848753,45.4221108],[-84.6849157,45.4221877],[-84.6848423,45.4222179],[-84.6848575,45.4222452],[-84.6849242,45.4222273]]]}}]}