{"type":"FeatureCollection","features":[{"type":"Feature","properties":{},"geometry":{"type":"Polygon","coordinates":[[[-84.6903442,45.4200625],[-84.6903973,45.4200841],[-84.6904453,45.4201109],[-84.6904874,45.4201423],[-84.6905227,45.4201776],[-84.6905504,45.4202161],[-84.6905699,45.420257],[-84.6905809,45.4202995],[-84.6905831,45.4203426],[-84.6905764,45.4203855],[-84.6905557,45.4261514],[-84.6905523,45.4261609],[-84.6905467,45.4261698],[-84.6905393,45.426178],[-84.69053,45.4261853],[-84.6905193,45.4261915],[-84.6905073,45.4261963],[-84.6904944,45.4261998],[-84.6904808,45.4262018],[-84.690467,45.4262023],[-84.6871686,45.4263635],[-84.6870511,45.4263488],[-84.6869357,45.426327],[-84.6868234,45.4262984],[-84.686715,45.4262631],[-84.6866112,45.4262215],[-84.6865129,45.4261738],[-84.6864207,45.4261204],[-84.6863353,45.4260616],[-84.6862573,45.4259979],[-84.6861874,45.4259297],[-84.6861259,45.4258576],[-84.6860734,45.4257821],[-84.6860302,45.4257037],[-84.6859967,45.425623],[-84.6859731,45.4255405],[-84.6859595,45.425457],[-84.685894,45.4251647],[-84.6841049,45.4254637],[-84.6840426,45.425467],[-84.6839801,45.4254641],[-84.6839189,45.4254552],[-84.68386,45.4254403],[-84.6838046,45.4254199],[-84.6837537,45.4253943],[-84.6837084,45.4253639],[-84.6836695,45.4253295],[-84.6836377,45.4252915],[-84.6822453,45.4230816],[-84.6806739,45.4212987],[-84.6796703,45.4201098],[-84.6802638,45.4199627],[-84.6808014,45.4200782],[-84.6819785,45.420184],[-84.6825415,45.4203597],[-84.6830775,45.4201854],[-84.6836302,45.4199089],[-84.6839384,45.4189316],[-84.6882449,45.4188863],[-84.6883186,45.4189114],[-84.6894296,45.4195218],[-84.6903442,45.4200625]]]}}]}