{"type":"FeatureCollection","features":[{"type":"Feature","properties":{},"geometry":{"type":"MultiLineString","coordinates":[[[-84.6847698,45.4188957],[-84.6847382,45.4191037],[-84.6846974,45.4193109],[-84.6846474,45.4195171],[-84.6845882,45.4197221],[-84.6845199,45.4199256],[-84.6844425,45.4201276],[-84.6843562,45.4203277],[-84.6842609,45.4205259],[-84.6841569,45.4207218],[-84.6841471,45.4215689],[-84.6841304,45.4216481],[-84.6839182,45.4217703],[-84.6839182,45.4218594],[-84.6839106,45.4219484],[-84.6838953,45.4220369],[-84.6838726,45.4221246],[-84.6838424,45.4222111],[-84.6837879,45.4223149],[-84.6837414,45.4224206],[-84.6837029,45.4225279],[-84.6836727,45.4226365],[-84.6836507,45.4227461],[-84.6836371,45.4228563],[-84.6836522,45.4231707],[-84.6837582,45.42338],[-84.6838198,45.4234375]]]}},{"type":"Feature","properties":{},"geometry":{"type":"MultiLineString","coordinates":[[[-84.6841304,45.4216481],[-84.6854197,45.4221116],[-84.6860258,45.4224177],[-84.6861041,45.4224514],[-84.6861774,45.4224902],[-84.686245,45.4225339],[-84.6863062,45.422582],[-84.6863605,45.422634],[-84.6864074,45.4226895],[-84.6864463,45.422748],[-84.686477,45.4228089],[-84.6864992,45.4228716],[-84.6865125,45.4229355],[-84.6866227,45.423183],[-84.6867272,45.4234318],[-84.6867348,45.4234737],[-84.6867326,45.423516],[-84.6867205,45.4235574],[-84.6866989,45.4235968],[-84.6866684,45.4236333],[-84.6866298,45.4236656],[-84.6865841,45.4236931]]]}},{"type":"Feature","properties":{},"geometry":{"type":"MultiLineString","coordinates":[[[-84.6841502,45.4213017],[-84.6844787,45.4212041],[-84.6848034,45.4211005],[-84.6851241,45.4209909],[-84.6855724,45.4209633],[-84.68602,45.420931],[-84.686467,45.4208941],[-84.6866082,45.4208637],[-84.6867463,45.420827],[-84.6868807,45.420784],[-84.6870109,45.4207349],[-84.6871363,45.42068],[-84.6872563,45.4206194],[-84.6873704,45.4205534],[-84.6874782,45.4204824],[-84.6875793,45.4204066],[-84.6877016,45.4201846],[-84.6878286,45.419964],[-84.6879603,45.4197448],[-84.688005,45.4196752],[-84.688053,45.4196067],[-84.6881318,45.419523],[-84.6882171,45.4194425],[-84.6883088,45.4193656],[-84.6884064,45.4192923],[-84.6885098,45.4192231],[-84.6886185,45.419158],[-84.6887322,45.4190974]]]}},{"type":"Feature","properties":{},"geometry":{"type":"MultiLineString","coordinates":[[[-84.6847698,45.4188957],[-84.6852732,45.418909],[-84.6857768,45.4189161],[-84.6862805,45.4189172],[-84.6867842,45.4189122],[-84.6872877,45.418901],[-84.6877909,45.4188837],[-84.6882935,45.4188603]]]}},{"type":"Feature","properties":{},"geometry":{"type":"MultiLineString","coordinates":[[[-84.6847698,45.4188957],[-84.6821517,45.4189218]]]}},{"type":"Feature","properties":{},"geometry":{"type":"MultiLineString","coordinates":[[[-84.6836398,45.4228279],[-84.6835463,45.4228147],[-84.6834553,45.4227947],[-84.6833677,45.4227682],[-84.6832845,45.4227354],[-84.6832066,45.4226967],[-84.6831348,45.4226526],[-84.6830698,45.4226034],[-84.6830125,45.4225498],[-84.6829633,45.4224923],[-84.6830567,45.4223646]]]}},{"type":"Feature","properties":{},"geometry":{"type":"MultiLineString","coordinates":[[[-84.6829633,45.4224923],[-84.6829185,45.422467],[-84.6828683,45.4224473],[-84.6828143,45.4224336],[-84.6827578,45.4224262],[-84.6827003,45.4224255],[-84.6826434,45.4224194],[-84.6825882,45.4224078],[-84.6825357,45.4223912],[-84.6824869,45.4223697],[-84.6824427,45.4223437],[-84.6824039,45.4223138],[-84.6823711,45.4222805],[-84.68216,45.422081]]]}},{"type":"Feature","properties":{},"geometry":{"type":"MultiLineString","coordinates":[[[-84.6843988,45.4241988],[-84.6837774,45.4243554],[-84.6837641,45.4243583],[-84.6837516,45.4243627],[-84.6837403,45.4243684],[-84.6837305,45.4243754],[-84.6837225,45.4243835],[-84.6837164,45.4243923],[-84.6837125,45.4244017],[-84.6837108,45.4244115],[-84.6837114,45.4244213],[-84.6837143,45.4244309],[-84.6837194,45.4244401],[-84.6839562,45.4248858],[-84.6841263,45.4252079]]]}},{"type":"Feature","properties":{},"geometry":{"type":"MultiLineString","coordinates":[[[-84.6837643,45.4229494],[-84.6836427,45.4229716]]]}},{"type":"Feature","properties":{},"geometry":{"type":"MultiLineString","coordinates":[[[-84.6837803,45.4230157],[-84.6836459,45.423038]]]}},{"type":"Feature","properties":{},"geometry":{"type":"MultiLineString","coordinates":[[[-84.683799,45.4230809],[-84.6836491,45.4231058]]]}},{"type":"Feature","properties":{},"geometry":{"type":"MultiLineString","coordinates":[[[-84.6836522,45.4231707],[-84.6838378,45.4231802],[-84.6839955,45.4231771],[-84.6840413,45.4231897],[-84.6841691,45.4231578],[-84.6843181,45.4230624],[-84.6844435,45.4229447],[-84.684573,45.4228832]]]}},{"type":"Feature","properties":{},"geometry":{"type":"MultiLineString","coordinates":[[[-84.6836398,45.4228279],[-84.683733,45.4228218],[-84.6838812,45.4227903],[-84.683932,45.4227893],[-84.6839808,45.4228044],[-84.6841212,45.4228132],[-84.6845376,45.4226581]]]}},{"type":"Feature","properties":{},"geometry":{"type":"MultiLineString","coordinates":[[[-84.685281,45.4220618],[-84.6853156,45.4220433],[-84.6853454,45.422021],[-84.6853696,45.4219957],[-84.6853876,45.4219678],[-84.6853989,45.4219383],[-84.6854032,45.4219079],[-84.6854004,45.4218774],[-84.6853905,45.4218476],[-84.6853739,45.4218194],[-84.6853509,45.4217935],[-84.6853222,45.4217705],[-84.6852886,45.4217512],[-84.6851784,45.4216294],[-84.685134,45.4216106],[-84.6850861,45.4215965],[-84.6850359,45.4215875],[-84.6849843,45.4215838],[-84.6849325,45.4215853],[-84.6848816,45.4215922],[-84.6848326,45.4216042],[-84.6847873,45.4216121],[-84.6847407,45.4216148],[-84.6846942,45.4216121],[-84.6846488,45.4216041],[-84.6846059,45.4215911],[-84.6845666,45.4215734],[-84.6845318,45.4215515],[-84.6845025,45.4215258],[-84.6844796,45.4214972],[-84.6841496,45.4213572],[-84.6844796,45.4214972],[-84.6849517,45.4211979],[-84.684986,45.4211757],[-84.6850245,45.4211573],[-84.6850664,45.4211431],[-84.6851108,45.4211334],[-84.6851568,45.4211284],[-84.6853087,45.4210753],[-84.6853331,45.4210692],[-84.6853586,45.4210658],[-84.6853845,45.4210653],[-84.6854102,45.4210677],[-84.685435,45.4210729],[-84.6854584,45.4210808],[-84.6854797,45.4210911],[-84.6854985,45.4211037],[-84.6855142,45.4211182]]]}},{"type":"Feature","properties":{},"geometry":{"type":"MultiLineString","coordinates":[[[-84.685634,45.4209591],[-84.6856081,45.4209639],[-84.6855836,45.4209716],[-84.6855613,45.420982],[-84.6855417,45.4209949],[-84.6855255,45.4210098],[-84.6855129,45.4210265],[-84.6855044,45.4210444],[-84.6855003,45.421063],[-84.6855005,45.4210819],[-84.6855052,45.4211004],[-84.6855142,45.4211182]]]}},{"type":"Feature","properties":{},"geometry":{"type":"MultiLineString","coordinates":[[[-84.6892793,45.4194616],[-84.6892385,45.419528],[-84.6891893,45.4195915],[-84.6891321,45.4196515],[-84.6890674,45.4197077],[-84.6889958,45.4197595],[-84.6889177,45.4198066],[-84.688834,45.4198484],[-84.6887452,45.4198847],[-84.6886521,45.4199152],[-84.6885554,45.4199397],[-84.688456,45.4199578],[-84.6883547,45.4199696],[-84.6882522,45.4199748],[-84.6881496,45.4199734],[-84.6880475,45.4199656],[-84.6879468,45.4199512],[-84.6878485,45.4199304]]]}},{"type":"Feature","properties":{},"geometry":{"type":"MultiLineString","coordinates":[[[-84.6851999,45.4216531],[-84.6855021,45.4214856],[-84.6855352,45.421473],[-84.6855652,45.4214568],[-84.6855911,45.4214375],[-84.6856124,45.4214156],[-84.6856285,45.4213916],[-84.6856391,45.4213661],[-84.6856438,45.4213397],[-84.6856426,45.4213132],[-84.6856354,45.4212871]]]}},{"type":"Feature","properties":{},"geometry":{"type":"MultiLineString","coordinates":[[[-84.6855142,45.4211182],[-84.6856354,45.4212871]]]}},{"type":"Feature","properties":{},"geometry":{"type":"MultiLineString","coordinates":[[[-84.684652,45.4240601],[-84.6846725,45.4240614],[-84.6846925,45.4240649],[-84.6847114,45.4240706],[-84.6847288,45.4240783],[-84.6847443,45.4240879],[-84.6847574,45.424099],[-84.6847679,45.4241115],[-84.6847754,45.424125],[-84.6847862,45.4241385],[-84.6847996,45.4241508],[-84.6848154,45.4241615],[-84.6848334,45.4241705],[-84.684853,45.4241775],[-84.6848738,45.4241824],[-84.6851812,45.424204],[-84.6853462,45.4241569],[-84.6855148,45.4241164],[-84.6856863,45.4240827],[-84.6858602,45.4240559],[-84.6860361,45.424036],[-84.6861374,45.4240307],[-84.6862379,45.4240204],[-84.6863371,45.424005],[-84.6864346,45.4239848],[-84.6865297,45.4239596],[-84.686552,45.423894],[-84.6865685,45.4238276],[-84.6865793,45.4237605],[-84.6865841,45.4236931]]]}}]}