{"type":"FeatureCollection","features":[{"type":"Feature","properties":{"tag":9.0,"common":"Balsam poplar","scientific":"Populus balsemifera","dbh":2.0},"geometry":{"type":"Point","coordinates":[-84.6841798,45.423195]}},{"type":"Feature","properties":{"tag":8.0,"common":"American Basswood","scientific":"Tilia americana","dbh":10.8},"geometry":{"type":"Point","coordinates":[-84.6843055,45.4231078]}},{"type":"Feature","properties":{"tag":7.0,"common":"Sugar Maple","scientific":"Acer sacharum","dbh":19.4},"geometry":{"type":"Point","coordinates":[-84.6843394,45.4230805]}},{"type":"Feature","properties":{"tag":6.0,"common":"Staghorn Sumac","scientific":"Rhus typhina","dbh":2.0},"geometry":{"type":"Point","coordinates":[-84.684567,45.4226752]}},{"type":"Feature","properties":{"tag":4.0,"common":"White Ash","scientific":"Fraxinus americana","dbh":15.7},"geometry":{"type":"Point","coordinates":[-84.6849741,45.4226397]}},{"type":"Feature","properties":{"tag":1.0,"common":"Sugar Maple","scientific":"Acer sacharum","dbh":47.0},"geometry":{"type":"Point","coordinates":[-84.6858733,45.4225547]}},{"type":"Feature","properties":{"tag":2.0,"common":"Sugar Maple","scientific":"Acer sacharum","dbh":49.0},"geometry":{"type":"Point","coordinates":[-84.6860613,45.4225786]}},{"type":"Feature","properties":{"tag":21.0,"common":"White Pine","scientific":"Pinus strobus","dbh":16.5},"geometry":{"type":"Point","coordinates":[-84.683239,45.4234466]}},{"type":"Feature","properties":{"tag":31.0,"common":"Sugar Maple","scientific":"Acer sacharum","dbh":5.1},"geometry":{"type":"Point","coordinates":[-84.6824797,45.422529]}},{"type":"Feature","properties":{"tag":32.0,"common":"Sugar Maple","scientific":"Acer sacharum","dbh":10.1},"geometry":{"type":"Point","coordinates":[-84.6818862,45.4218573]}},{"type":"Feature","properties":{"tag":33.0,"common":"White-cedar","scientific":"Thuja occidentalis","dbh":25.3},"geometry":{"type":"Point","coordinates":[-84.6816177,45.4214854]}},{"type":"Feature","properties":{"tag":34.0,"common":"White Ash","scientific":"Fraxinus americana","dbh":1.7},"geometry":{"type":"Point","coordinates":[-84.6815693,45.4214774]}},{"type":"Feature","properties":{"tag":35.0,"common":"White Ash","scientific":"Fraxinus americana","dbh":8.6},"geometry":{"type":"Point","coordinates":[-84.681599,45.421354]}},{"type":"Feature","properties":{"tag":36.0,"common":"White-cedar","scientific":"Thuja occidentalis","dbh":26.1},"geometry":{"type":"Point","coordinates":[-84.681453,45.4211844]}},{"type":"Feature","properties":{"tag":37.0,"common":"Yellow Birch","scientific":"Betula allegheniensis","dbh":15.1},"geometry":{"type":"Point","coordinates":[-84.6815088,45.4211473]}},{"type":"Feature","properties":{"tag":38.0,"common":"Eastern Hemlock","scientific":"Tsuga canadensis","dbh":12.2},"geometry":{"type":"Point","coordinates":[-84.681256,45.420992]}},{"type":"Feature","properties":{"tag":39.0,"common":"Mountain Maple","scientific":"Acer spicatum","dbh":3.4},"geometry":{"type":"Point","coordinates":[-84.6812543,45.4209635]}},{"type":"Feature","properties":{"tag":42.0,"common":"Yellow Birch","scientific":"Betula allegheniensis","dbh":4.2},"geometry":{"type":"Point","coordinates":[-84.6807583,45.4205224]}},{"type":"Feature","properties":{"tag":40.0,"common":"White-cedar","scientific":"Thuja occidentalis","dbh":24.3},"geometry":{"type":"Point","coordinates":[-84.6808444,45.4206857]}},{"type":"Feature","properties":{"tag":41.0,"common":"Eastern Hemlock","scientific":"Tsuga canadensis","dbh":19.3},"geometry":{"type":"Point","coordinates":[-84.6808819,45.420642]}},{"type":"Feature","properties":{"tag":43.0,"common":"Sugar Maple","scientific":"Acer sacharum","dbh":21.4},"geometry":{"type":"Point","coordinates":[-84.6802997,45.4202778]}},{"type":"Feature","properties":{"tag":44.0,"common":"Eastern Hemlock","scientific":"Tsuga canadensis","dbh":9.9},"geometry":{"type":"Point","coordinates":[-84.6802986,45.4202486]}},{"type":"Feature","properties":{"tag":45.0,"common":"White-cedar","scientific":"Thuja occidentalis","dbh":19.1},"geometry":{"type":"Point","coordinates":[-84.6803344,45.4201423]}},{"type":"Feature","properties":{"tag":46.0,"common":"White Ash","scientific":"Fraxinus americana","dbh":3.6},"geometry":{"type":"Point","coordinates":[-84.6803797,45.420223]}},{"type":"Feature","properties":{"tag":47.0,"common":"Yellow Birch","scientific":"Betula allegheniensis","dbh":30.9},"geometry":{"type":"Point","coordinates":[-84.6811924,45.4203086]}},{"type":"Feature","properties":{"tag":48.0,"common":"Eastern Hemlock","scientific":"Tsuga canadensis","dbh":30.5},"geometry":{"type":"Point","coordinates":[-84.6815076,45.4203594]}},{"type":"Feature","properties":{"tag":49.0,"common":"Eastern Hemlock","scientific":"Tsuga canadensis","dbh":30.7},"geometry":{"type":"Point","coordinates":[-84.6814818,45.4203666]}},{"type":"Feature","properties":{"tag":50.0,"common":"Eastern Hemlock","scientific":"Tsuga canadensis","dbh":18.0},"geometry":{"type":"Point","coordinates":[-84.6814808,45.4203431]}},{"type":"Feature","properties":{"tag":51.0,"common":"Sugar Maple","scientific":"Acer sacharum","dbh":22.1},"geometry":{"type":"Point","coordinates":[-84.6819505,45.4205501]}},{"type":"Feature","properties":{"tag":52.0,"common":"White-cedar","scientific":"Thuja occidentalis","dbh":20.0},"geometry":{"type":"Point","coordinates":[-84.6820338,45.4205204]}},{"type":"Feature","properties":{"tag":53.0,"scientific":"Mystery","dbh":29.5},"geometry":{"type":"Point","coordinates":[-84.6819547,45.4206557]}},{"type":"Feature","properties":{"tag":55.0,"common":"Yellow Birch","scientific":"Betula allegheniensis","dbh":20.5},"geometry":{"type":"Point","coordinates":[-84.6821371,45.4207535]}},{"type":"Feature","properties":{"tag":54.0,"common":"Eastern Hemlock","scientific":"Tsuga canadensis","dbh":16.5},"geometry":{"type":"Point","coordinates":[-84.6821293,45.420751]}},{"type":"Feature","properties":{"tag":56.0,"common":"Yellow Birch","scientific":"Betula allegheniensis","dbh":28.8},"geometry":{"type":"Point","coordinates":[-84.6814096,45.4207525]}},{"type":"Feature","properties":{"tag":57.0,"common":"Yellow Birch","scientific":"Betula allegheniensis","dbh":19.8},"geometry":{"type":"Point","coordinates":[-84.6814517,45.4210614]}},{"type":"Feature","properties":{"tag":58.0,"common":"White-cedar","scientific":"Thuja occidentalis","dbh":24.3},"geometry":{"type":"Point","coordinates":[-84.681545,45.4210993]}},{"type":"Feature","properties":{"tag":59.0,"common":"Sugar Maple","scientific":"Acer sacharum","dbh":12.8},"geometry":{"type":"Point","coordinates":[-84.681409,45.4211995]}},{"type":"Feature","properties":{"tag":60.0,"common":"Yellow Birch","scientific":"Betula allegheniensis","dbh":24.5},"geometry":{"type":"Point","coordinates":[-84.6813924,45.4212127]}},{"type":"Feature","properties":{"tag":61.0,"common":"White-cedar","scientific":"Thuja occidentalis","dbh":33.7},"geometry":{"type":"Point","coordinates":[-84.6816693,45.4213823]}},{"type":"Feature","properties":{"tag":62.0,"common":"Yellow Birch","scientific":"Betula allegheniensis","dbh":14.3},"geometry":{"type":"Point","coordinates":[-84.681887,45.4216018]}},{"type":"Feature","properties":{"tag":12.0,"common":"Sugar Maple","scientific":"Acer sacharum","dbh":31.9},"geometry":{"type":"Point","coordinates":[-84.6835387,45.4239406]}},{"type":"Feature","properties":{"tag":13.0,"common":"Sugar Maple","scientific":"Acer sacharum","dbh":20.2},"geometry":{"type":"Point","coordinates":[-84.6835943,45.4240224]}},{"type":"Feature","properties":{"tag":14.0,"common":"Sugar Maple","scientific":"Acer sacharum","dbh":19.5},"geometry":{"type":"Point","coordinates":[-84.6836314,45.4240897]}},{"type":"Feature","properties":{"tag":15.0,"common":"American Basswood","scientific":"Tilia americana","dbh":20.8},"geometry":{"type":"Point","coordinates":[-84.6834136,45.424247]}},{"type":"Feature","properties":{"tag":16.0,"common":"Sugar Maple","scientific":"Acer sacharum","dbh":40.5},"geometry":{"type":"Point","coordinates":[-84.6838041,45.4244176]}},{"type":"Feature","properties":{"tag":17.0,"common":"Bigtooth Aspen","scientific":"Populus grandidentata","dbh":10.7},"geometry":{"type":"Point","coordinates":[-84.6836788,45.4245141]}},{"type":"Feature","properties":{"tag":18.0,"common":"American Basswood","scientific":"Tilia americana","dbh":17.8},"geometry":{"type":"Point","coordinates":[-84.6838293,45.424386]}},{"type":"Feature","properties":{"tag":19.0,"common":"Red Maple","scientific":"Acer rubrum","dbh":5.0},"geometry":{"type":"Point","coordinates":[-84.6843247,45.4239513]}},{"type":"Feature","properties":{"tag":11.0,"common":"Sugar Maple","scientific":"Acer sacharum","dbh":21.1},"geometry":{"type":"Point","coordinates":[-84.6841605,45.4237649]}},{"type":"Feature","properties":{"tag":63.0,"common":"Bigtooth Aspen","scientific":"Populus grandidentata","dbh":15.5},"geometry":{"type":"Point","coordinates":[-84.683846,45.422588]}},{"type":"Feature","properties":{"tag":64.0,"common":"American Basswood","scientific":"Tilia americana","dbh":12.1},"geometry":{"type":"Point","coordinates":[-84.6838245,45.4225042]}},{"type":"Feature","properties":{"tag":65.0,"common":"Sugar Maple","scientific":"Acer sacharum","dbh":36.8},"geometry":{"type":"Point","coordinates":[-84.6839634,45.4221164]}},{"type":"Feature","properties":{"tag":66.0,"common":"Yellow Birch","scientific":"Betula allegheniensis","dbh":38.5},"geometry":{"type":"Point","coordinates":[-84.6840608,45.4218328]}},{"type":"Feature","properties":{"tag":67.0,"common":"Mountain Maple","scientific":"Acer spicatum","dbh":21.7},"geometry":{"type":"Point","coordinates":[-84.6840315,45.4215641]}},{"type":"Feature","properties":{"tag":68.0,"common":"Eastern Hemlock","scientific":"Tsuga canadensis","dbh":16.6},"geometry":{"type":"Point","coordinates":[-84.6840713,45.4212117]}},{"type":"Feature","properties":{"tag":69.0,"common":"Sugar Maple","scientific":"Acer sacharum","dbh":26.6},"geometry":{"type":"Point","coordinates":[-84.6838894,45.4211847]}},{"type":"Feature","properties":{"tag":71.0,"common":"Ironwood","scientific":"Ostrya virginiana","dbh":4.5},"geometry":{"type":"Point","coordinates":[-84.684086,45.4211913]}},{"type":"Feature","properties":{"tag":72.0,"common":"Fire Cherry","scientific":"Prunus pennsylvanica","dbh":11.2},"geometry":{"type":"Point","coordinates":[-84.6858169,45.4222587]}},{"type":"Feature","properties":{"tag":73.0,"common":"Norway Maple","scientific":"Acer platanoides","dbh":6.5},"geometry":{"type":"Point","coordinates":[-84.6860625,45.4223718]}},{"type":"Feature","properties":{"tag":74.0,"common":"White Ash","scientific":"Fraxinus americana","dbh":13.4},"geometry":{"type":"Point","coordinates":[-84.6869948,45.4226459]}},{"type":"Feature","properties":{"tag":75.0,"common":"Sugar Maple","scientific":"Acer sacharum","dbh":12.9},"geometry":{"type":"Point","coordinates":[-84.6858532,45.4227928]}},{"type":"Feature","properties":{"tag":77.0,"common":"Scotch/Scots Pine","scientific":"Pinus sylvestris","dbh":10.3},"geometry":{"type":"Point","coordinates":[-84.68539,45.4230319]}},{"type":"Feature","properties":{"tag":76.0,"common":"Scotch/Scots Pine","scientific":"Pinus sylvestris","dbh":11.1},"geometry":{"type":"Point","coordinates":[-84.685308,45.4230321]}},{"type":"Feature","properties":{"tag":78.0,"common":"Sugar Maple","scientific":"Acer sacharum","dbh":17.0},"geometry":{"type":"Point","coordinates":[-84.6852561,45.4229528]}},{"type":"Feature","properties":{"tag":79.0,"common":"Paper Birch","scientific":"Betula papyifera","dbh":21.9},"geometry":{"type":"Point","coordinates":[-84.6852503,45.4231313]}},{"type":"Feature","properties":{"tag":80.0,"common":"White Pine","scientific":"Pinus strobus","dbh":15.2},"geometry":{"type":"Point","coordinates":[-84.6849187,45.4235744]}},{"type":"Feature","properties":{"tag":81.0,"common":"Sugar Maple","scientific":"Acer sacharum","dbh":16.0},"geometry":{"type":"Point","coordinates":[-84.6848513,45.4235631]}},{"type":"Feature","properties":{"tag":82.0,"common":"White Pine","scientific":"Pinus strobus","dbh":29.5},"geometry":{"type":"Point","coordinates":[-84.6848988,45.4235987]}},{"type":"Feature","properties":{"tag":83.0,"common":"Trembling Aspen","scientific":"Populus deltoides","dbh":9.8},"geometry":{"type":"Point","coordinates":[-84.6849126,45.4235475]}},{"type":"Feature","properties":{"tag":84.0,"common":"American Basswood","scientific":"Tilia americana","dbh":12.2},"geometry":{"type":"Point","coordinates":[-84.68485,45.423581]}},{"type":"Feature","properties":{"tag":85.0,"common":"White Pine","scientific":"Pinus strobus","dbh":39.0},"geometry":{"type":"Point","coordinates":[-84.6843761,45.4226376]}},{"type":"Feature","properties":{"tag":86.0,"common":"Crab Apple","scientific":"Malus spp","dbh":12.1},"geometry":{"type":"Point","coordinates":[-84.6846654,45.4222141]}},{"type":"Feature","properties":{"tag":87.0,"common":"White Pine","scientific":"Pinus strobus","dbh":35.0},"geometry":{"type":"Point","coordinates":[-84.6843361,45.4219796]}},{"type":"Feature","properties":{"tag":88.0,"common":"Ironwood","scientific":"Ostrya virginiana","dbh":7.2},"geometry":{"type":"Point","coordinates":[-84.6837508,45.4216137]}},{"type":"Feature","properties":{"tag":90.0,"common":"Pin Oak","scientific":"Quercus ellipsoidales","dbh":24.3},"geometry":{"type":"Point","coordinates":[-84.6840717,45.4215794]}},{"type":"Feature","properties":{"tag":91.0,"common":"Eastern Hemlock","scientific":"Tsuga canadensis","dbh":7.3},"geometry":{"type":"Point","coordinates":[-84.6836405,45.4216309]}},{"type":"Feature","properties":{"tag":92.0,"common":"American Beech","scientific":"Fagus grandifolia","dbh":24.5},"geometry":{"type":"Point","coordinates":[-84.6837906,45.4246447]}},{"type":"Feature","properties":{"tag":94.0,"common":"Yellow Birch","scientific":"Betula allegheniensis","dbh":30.1},"geometry":{"type":"Point","coordinates":[-84.6840402,45.4249748]}},{"type":"Feature","properties":{"tag":95.0,"common":"Bigtooth Aspen","scientific":"Populus grandidentata","dbh":17.1},"geometry":{"type":"Point","coordinates":[-84.6843039,45.4250025]}},{"type":"Feature","properties":{"tag":96.0,"common":"Eastern Hemlock","scientific":"Tsuga canadensis","dbh":13.3},"geometry":{"type":"Point","coordinates":[-84.6848761,45.4242039]}},{"type":"Feature","properties":{"tag":97.0,"common":"Mountain Maple","scientific":"Acer spicatum","dbh":25.2},"geometry":{"type":"Point","coordinates":[-84.6851839,45.4242384]}},{"type":"Feature","properties":{"tag":98.0,"common":"American Beech","scientific":"Fagus grandifolia","dbh":27.3},"geometry":{"type":"Point","coordinates":[-84.6844905,45.4206688]}},{"type":"Feature","properties":{"tag":99.0,"common":"Trembling Aspen","scientific":"Populus tremuloides","dbh":29.5},"geometry":{"type":"Point","coordinates":[-84.6845197,45.4204575]}},{"type":"Feature","properties":{"tag":100.0,"common":"American Basswood","scientific":"Tilia americana","dbh":7.4},"geometry":{"type":"Point","coordinates":[-84.6843347,45.4199422]}},{"type":"Feature","properties":{"tag":3.0,"common":"White Ash","scientific":"Fraxinus americana","dbh":8.2},"geometry":{"type":"Point","coordinates":[-84.6852628,45.4223485]}},{"type":"Feature","properties":{},"geometry":{"type":"Point","coordinates":[-84.6847591,45.4228094]}},{"type":"Feature","properties":{},"geometry":{"type":"Point","coordinates":[-84.6901201,45.422206]}},{"type":"Feature","properties":{},"geometry":{"type":"Point","coordinates":[-84.6897158,45.4212198]}},{"type":"Feature","properties":{},"geometry":{"type":"Point","coordinates":[-84.6895927,45.4212263]}},{"type":"Feature","properties":{},"geometry":{"type":"Point","coordinates":[-84.6894141,45.421472]}},{"type":"Feature","properties":{},"geometry":{"type":"Point","coordinates":[-84.6891247,45.4216256]}},{"type":"Feature","properties":{},"geometry":{"type":"Point","coordinates":[-84.6889928,45.4220934]}},{"type":"Feature","properties":{},"geometry":{"type":"Point","coordinates":[-84.68542,45.4221863]}},{"type":"Feature","properties":{},"geometry":{"type":"Point","coordinates":[-84.6841889,45.4228554]}},{"type":"Feature","properties":{"common":"Paper Birch","scientific":"Betula papyrifera","dbh":48.6},"geometry":{"type":"Point","coordinates":[-84.6839337,45.4218847]}}]}